[{"OBJECT_NAME":"OBJECT AL","OBJECT_ID":"2023-085AL","EPOCH":"2026-03-09T22:26:04.970400","MEAN_MOTION":15.31857284,"ECCENTRICITY":0.000802,"INCLINATION":97.4839,"RA_OF_ASC_NODE":180.0127,"ARG_OF_PERICENTER":78.7242,"MEAN_ANOMALY":281.49,"EPHEMERIS_TYPE":0,"CLASSIFICATION_TYPE":"U","NORAD_CAT_ID":57038,"ELEMENT_SET_NO":999,"REV_AT_EPOCH":15154,"BSTAR":0.0006591637,"MEAN_MOTION_DOT":0.00020246,"MEAN_MOTION_DDOT":0},{"OBJECT_NAME":"STARLINK-32639","OBJECT_ID":"2024-224Q","EPOCH":"2026-03-09T11:12:17.926560","MEAN_MOTION":15.27574627,"ECCENTRICITY":0.00019306,"INCLINATION":43.0009,"RA_OF_ASC_NODE":159.5579,"ARG_OF_PERICENTER":285.476,"MEAN_ANOMALY":74.5879,"EPHEMERIS_TYPE":0,"CLASSIFICATION_TYPE":"U","NORAD_CAT_ID":62153,"ELEMENT_SET_NO":999,"REV_AT_EPOCH":7228,"BSTAR":0.00057425459,"MEAN_MOTION_DOT":0.00015571,"MEAN_MOTION_DDOT":0}]
